{
    "links": {
        "self": "http://www.neowsapp.com/rest/v1/neo/3693239?api_key=iIulBulltgU6a56xZRHN4H3l9WmuAYTsLGpBGhQ2"
    },
    "id": "3693239",
    "neo_reference_id": "3693239",
    "name": "(2014 TT35)",
    "designation": "2014 TT35",
    "nasa_jpl_url": "http://ssd.jpl.nasa.gov/sbdb.cgi?sstr=3693239",
    "absolute_magnitude_h": 26.0,
    "estimated_diameter": {
        "kilometers": {
            "estimated_diameter_min": 0.0167708462,
            "estimated_diameter_max": 0.0375007522
        },
        "meters": {
            "estimated_diameter_min": 16.7708462163,
            "estimated_diameter_max": 37.5007521798
        },
        "miles": {
            "estimated_diameter_min": 0.0104209175,
            "estimated_diameter_max": 0.0233018799
        },
        "feet": {
            "estimated_diameter_min": 55.0224631002,
            "estimated_diameter_max": 123.0339677816
        }
    },
    "is_potentially_hazardous_asteroid": false,
    "close_approach_data": [
        {
            "close_approach_date": "2014-10-22",
            "close_approach_date_full": "2014-Oct-22 02:09",
            "epoch_date_close_approach": 1413943740000,
            "relative_velocity": {
                "kilometers_per_second": "10.6751597228",
                "kilometers_per_hour": "38430.5750020292",
                "miles_per_hour": "23879.2647838998"
            },
            "miss_distance": {
                "astronomical": "0.0177117105",
                "lunar": "6.8898553845",
                "kilometers": "2649634.164856635",
                "miles": "1646406.325166163"
            },
            "orbiting_body": "Earth"
        },
        {
            "close_approach_date": "2016-10-07",
            "close_approach_date_full": "2016-Oct-07 23:42",
            "epoch_date_close_approach": 1475883720000,
            "relative_velocity": {
                "kilometers_per_second": "15.5862388688",
                "kilometers_per_hour": "56110.4599275317",
                "miles_per_hour": "34864.8577255266"
            },
            "miss_distance": {
                "astronomical": "0.1490931354",
                "lunar": "57.9972296706",
                "kilometers": "22304015.487461598",
                "miles": "13859072.5701741324"
            },
            "orbiting_body": "Earth"
        },
        {
            "close_approach_date": "2018-09-28",
            "close_approach_date_full": "2018-Sep-28 12:52",
            "epoch_date_close_approach": 1538139120000,
            "relative_velocity": {
                "kilometers_per_second": "20.709230617",
                "kilometers_per_hour": "74553.2302213404",
                "miles_per_hour": "46324.4779672545"
            },
            "miss_distance": {
                "astronomical": "0.3210706185",
                "lunar": "124.8964705965",
                "kilometers": "48031480.647182595",
                "miles": "29845378.125586011"
            },
            "orbiting_body": "Earth"
        },
        {
            "close_approach_date": "2020-09-19",
            "close_approach_date_full": "2020-Sep-19 09:30",
            "epoch_date_close_approach": 1600507800000,
            "relative_velocity": {
                "kilometers_per_second": "25.6801339159",
                "kilometers_per_hour": "92448.4820972555",
                "miles_per_hour": "57443.8915564863"
            },
            "miss_distance": {
                "astronomical": "0.4905461531",
                "lunar": "190.8224535559",
                "kilometers": "73384659.640453897",
                "miles": "45599113.0416098986"
            },
            "orbiting_body": "Earth"
        }
    ],
    "orbital_data": {
        "orbit_id": "7",
        "orbit_determination_date": "2017-04-06 08:38:10",
        "first_observation_date": "2014-10-14",
        "last_observation_date": "2014-10-17",
        "data_arc_in_days": 3,
        "observations_used": 29,
        "orbit_uncertainty": "8",
        "minimum_orbit_intersection": ".00612645",
        "jupiter_tisserand_invariant": "4.283",
        "epoch_osculation": "2456945.5",
        "eccentricity": ".4692810944415246",
        "semi_major_axis": "1.570167697400823",
        "inclination": "3.233766020426062",
        "ascending_node_longitude": "200.339167733277",
        "orbital_period": "718.6500905312944",
        "perihelion_distance": ".8333176819078359",
        "perihelion_argument": "247.0892242091729",
        "aphelion_distance": "2.307017712893809",
        "perihelion_time": "2456995.684669401651",
        "mean_anomaly": "334.8605319575791",
        "mean_motion": ".50093919800922",
        "equinox": "J2000",
        "orbit_class": {
            "orbit_class_type": "APO",
            "orbit_class_description": "Near-Earth asteroid orbits which cross the Earth’s orbit similar to that of 1862 Apollo",
            "orbit_class_range": "a (semi-major axis) > 1.0 AU; q (perihelion) < 1.017 AU"
        }
    },
    "is_sentry_object": false
}